{"type": "FeatureCollection", "features": [ {"type": "Feature", "properties": {"norad_id": 41785, "name": "ALSAT 1B", "group": "resource", "lat": -70.06003336139474, "lon": 168.3979276889457, "alt_km": 669.2413625473673, "timestamp": "2025-12-25T07:00:33.700045+00:00", "meta": {"OBJECT_NAME": "ALSAT 1B", "OBJECT_ID": "2016-059C", "EPOCH": "2025-12-24T23:20:42.811872", "MEAN_MOTION": 14.72087362, "ECCENTRICITY": 0.00107412, "INCLINATION": 97.7807, "RA_OF_ASC_NODE": 10.2338, "ARG_OF_PERICENTER": 69.1975, "MEAN_ANOMALY": 291.0382, "EPHEMERIS_TYPE": 0, "CLASSIFICATION_TYPE": "U", "NORAD_CAT_ID": 41785, "ELEMENT_SET_NO": 999, "REV_AT_EPOCH": 49494, "BSTAR": 6.0030793e-05, "MEAN_MOTION_DOT": 3.31e-06, "MEAN_MOTION_DDOT": 0}, "tle": {"line1": "1 41785U 16059C   25358.97271773  .00000331  00000+0  60031-4 0  9992", "line2": "2 41785  97.7807  10.2338 0010741  69.1975 291.0382 14.72087362494947"}}, "geometry": {"type": "Point", "coordinates": [168.3979276889457, -70.06003336139474]}}, {"type": "Feature", "properties": {"norad_id": 41787, "name": "PATHFINDER 1", "group": "resource", "lat": 62.73260870289042, "lon": -163.06520307331877, "alt_km": 657.4131091403624, "timestamp": "2025-12-25T07:00:33.700056+00:00", "meta": {"OBJECT_NAME": "PATHFINDER 1", "OBJECT_ID": "2016-059E", "EPOCH": "2025-12-24T17:23:29.831712", "MEAN_MOTION": 14.67341271, "ECCENTRICITY": 0.00296241, "INCLINATION": 97.8138, "RA_OF_ASC_NODE": 0.9421, "ARG_OF_PERICENTER": 44.627, "MEAN_ANOMALY": 315.7313, "EPHEMERIS_TYPE": 0, "CLASSIFICATION_TYPE": "U", "NORAD_CAT_ID": 41787, "ELEMENT_SET_NO": 999, "REV_AT_EPOCH": 49412, "BSTAR": 0.00014621917, "MEAN_MOTION_DOT": 7.84e-06, "MEAN_MOTION_DDOT": 0}, "tle": {"line1": "1 41787U 16059E   25358.72465083  .00000784  00000+0  14622-3 0  9992", "line2": "2 41787  97.8138   0.9421 0029624  44.6270 315.7313 14.67341271494126"}}, "geometry": {"type": "Point", "coordinates": [-163.06520307331877, 62.73260870289042]}}, {"type": "Feature", "properties": {"norad_id": 41790, "name": "SCATSAT 1", "group": "resource", "lat": -81.21679837207382, "lon": 124.07477734321279, "alt_km": 679.3576714022047, "timestamp": "2025-12-25T07:00:33.700066+00:00", "meta": {"OBJECT_NAME": "SCATSAT 1", "OBJECT_ID": "2016-059H", "EPOCH": "2025-12-24T21:39:40.666464", "MEAN_MOTION": 14.78974547, "ECCENTRICITY": 0.00564661, "INCLINATION": 98.1447, "RA_OF_ASC_NODE": 55.7239, "ARG_OF_PERICENTER": 89.7014, "MEAN_ANOMALY": 271.0667, "EPHEMERIS_TYPE": 0, "CLASSIFICATION_TYPE": "U", "NORAD_CAT_ID": 41790, "ELEMENT_SET_NO": 999, "REV_AT_EPOCH": 7582, "BSTAR": 0.00020488361, "MEAN_MOTION_DOT": 1.497e-05, "MEAN_MOTION_DDOT": 0}, "tle": {"line1": "1 41790U 16059H   25358.90255401  .00001497  00000+0  20488-3 0  9996", "line2": "2 41790  98.1447  55.7239 0056466  89.7014 271.0667 14.78974547 75820"}}, "geometry": {"type": "Point", "coordinates": [124.07477734321279, -81.21679837207382]}}, {"type": "Feature", "properties": {"norad_id": 41875, "name": "GOKTURK 1A", "group": "resource", "lat": -11.754397729302159, "lon": -106.80275230428343, "alt_km": 688.5809133514977, "timestamp": "2025-12-25T07:00:33.700076+00:00", "meta": {"OBJECT_NAME": "GOKTURK 1A", "OBJECT_ID": "2016-073A", "EPOCH": "2025-12-24T22:51:18.548064", "MEAN_MOTION": 14.62794258, "ECCENTRICITY": 0.00012903, "INCLINATION": 98.1427, "RA_OF_ASC_NODE": 251.1549, "ARG_OF_PERICENTER": 81.2822, "MEAN_ANOMALY": 278.8526, "EPHEMERIS_TYPE": 0, "CLASSIFICATION_TYPE": "U", "NORAD_CAT_ID": 41875, "ELEMENT_SET_NO": 999, "REV_AT_EPOCH": 48335, "BSTAR": 0.00018394075, "MEAN_MOTION_DOT": 8.92e-06, "MEAN_MOTION_DDOT": 0}, "tle": {"line1": "1 41875U 16073A   25358.95229801  .00000892  00000+0  18394-3 0  9997", "line2": "2 41875  98.1427 251.1549 0001290  81.2822 278.8526 14.62794258483359"}}, "geometry": {"type": "Point", "coordinates": [-106.80275230428343, -11.754397729302159]}}, {"type": "Feature", "properties": {"norad_id": 41877, "name": "RESOURCESAT-2A", "group": "resource", "lat": -20.569768986847684, "lon": 72.39666830510824, "alt_km": 825.9772242172676, "timestamp": "2025-12-25T07:00:33.700086+00:00", "meta": {"OBJECT_NAME": "RESOURCESAT-2A", "OBJECT_ID": "2016-074A", "EPOCH": "2025-12-24T22:39:40.304736", "MEAN_MOTION": 14.21604631, "ECCENTRICITY": 0.00016184, "INCLINATION": 98.7739, "RA_OF_ASC_NODE": 68.7284, "ARG_OF_PERICENTER": 201.2433, "MEAN_ANOMALY": 158.8677, "EPHEMERIS_TYPE": 0, "CLASSIFICATION_TYPE": "U", "NORAD_CAT_ID": 41877, "ELEMENT_SET_NO": 999, "REV_AT_EPOCH": 46954, "BSTAR": 4.1265521e-05, "MEAN_MOTION_DOT": 4.6e-07, "MEAN_MOTION_DDOT": 0}, "tle": {"line1": "1 41877U 16074A   25358.94421649  .00000046  00000+0  41266-4 0  9999", "line2": "2 41877  98.7739  68.7284 0001618 201.2433 158.8677 14.21604631469546"}}, "geometry": {"type": "Point", "coordinates": [72.39666830510824, -20.569768986847684]}}, {"type": "Feature", "properties": {"norad_id": 41948, "name": "CARTOSAT-2D", "group": "resource", "lat": 70.19772024770973, "lon": 35.325590921216445, "alt_km": 498.8959542366056, "timestamp": "2025-12-25T07:00:33.700096+00:00", "meta": {"OBJECT_NAME": "CARTOSAT-2D", "OBJECT_ID": "2017-008A", "EPOCH": "2025-12-24T22:47:28.985856", "MEAN_MOTION": 15.19182905, "ECCENTRICITY": 0.0005453, "INCLINATION": 97.4371, "RA_OF_ASC_NODE": 56.2598, "ARG_OF_PERICENTER": 118.4674, "MEAN_ANOMALY": 241.7111, "EPHEMERIS_TYPE": 0, "CLASSIFICATION_TYPE": "U", "NORAD_CAT_ID": 41948, "ELEMENT_SET_NO": 999, "REV_AT_EPOCH": 49112, "BSTAR": 0.00019918667, "MEAN_MOTION_DOT": 4.123e-05, "MEAN_MOTION_DDOT": 0}, "tle": {"line1": "1 41948U 17008A   25358.94964104  .00004123  00000+0  19919-3 0  9993", "line2": "2 41948  97.4371  56.2598 0005453 118.4674 241.7111 15.19182905491127"}}, "geometry": {"type": "Point", "coordinates": [35.325590921216445, 70.19772024770973]}}, {"type": "Feature", "properties": {"norad_id": 42063, "name": "SENTINEL-2B", "group": "resource", "lat": 3.2527391623426, "lon": 71.07012413868416, "alt_km": 791.4529034862853, "timestamp": "2025-12-25T07:00:33.700106+00:00", "meta": {"OBJECT_NAME": "SENTINEL-2B", "OBJECT_ID": "2017-013A", "EPOCH": "2025-12-24T22:36:08.656704", "MEAN_MOTION": 14.30814862, "ECCENTRICITY": 0.00011816, "INCLINATION": 98.57, "RA_OF_ASC_NODE": 71.2159, "ARG_OF_PERICENTER": 90.7367, "MEAN_ANOMALY": 269.3952, "EPHEMERIS_TYPE": 0, "CLASSIFICATION_TYPE": "U", "NORAD_CAT_ID": 42063, "ELEMENT_SET_NO": 999, "REV_AT_EPOCH": 45972, "BSTAR": 6.175192e-06, "MEAN_MOTION_DOT": -2.7e-07, "MEAN_MOTION_DDOT": 0}, "tle": {"line1": "1 42063U 17013A   25358.94176686 -.00000027  00000+0  61752-5 0  9992", "line2": "2 42063  98.5700  71.2159 0001181  90.7367 269.3952 14.30814862459724"}}, "geometry": {"type": "Point", "coordinates": [71.07012413868416, 3.2527391623426]}}, {"type": "Feature", "properties": {"norad_id": 42767, "name": "CARTOSAT-2E", "group": "resource", "lat": -19.001860420194443, "lon": 59.29755424496716, "alt_km": 515.2134963122207, "timestamp": "2025-12-25T07:00:33.700116+00:00", "meta": {"OBJECT_NAME": "CARTOSAT-2E", "OBJECT_ID": "2017-036C", "EPOCH": "2025-12-25T00:46:13.498752", "MEAN_MOTION": 15.19192045, "ECCENTRICITY": 0.0002613, "INCLINATION": 97.4535, "RA_OF_ASC_NODE": 56.4571, "ARG_OF_PERICENTER": 175.1056, "MEAN_ANOMALY": 185.0204, "EPHEMERIS_TYPE": 0, "CLASSIFICATION_TYPE": "U", "NORAD_CAT_ID": 42767, "ELEMENT_SET_NO": 999, "REV_AT_EPOCH": 47170, "BSTAR": 0.00016621, "MEAN_MOTION_DOT": 3.429e-05, "MEAN_MOTION_DDOT": 0}, "tle": {"line1": "1 42767U 17036C   25359.03210068  .00003429  00000+0  16621-3 0  9993", "line2": "2 42767  97.4535  56.4571 0002613 175.1056 185.0204 15.19192045471702"}}, "geometry": {"type": "Point", "coordinates": [59.29755424496716, -19.001860420194443]}}, {"type": "Feature", "properties": {"norad_id": 42920, "name": "FORMOSAT-5", "group": "resource", "lat": -8.5117599639542, "lon": -107.88524628831168, "alt_km": 724.7823232091478, "timestamp": "2025-12-25T07:00:33.700127+00:00", "meta": {"OBJECT_NAME": "FORMOSAT-5", "OBJECT_ID": "2017-049A", "EPOCH": "2025-12-24T20:12:38.392992", "MEAN_MOTION": 14.50767344, "ECCENTRICITY": 0.00098334, "INCLINATION": 98.2438, "RA_OF_ASC_NODE": 72.9173, "ARG_OF_PERICENTER": 260.0688, "MEAN_ANOMALY": 99.9397, "EPHEMERIS_TYPE": 0, "CLASSIFICATION_TYPE": "U", "NORAD_CAT_ID": 42920, "ELEMENT_SET_NO": 999, "REV_AT_EPOCH": 44139, "BSTAR": 7.1255107e-05, "MEAN_MOTION_DOT": 2.37e-06, "MEAN_MOTION_DDOT": 0}, "tle": {"line1": "1 42920U 17049A   25358.84211103  .00000237  00000+0  71255-4 0  9996", "line2": "2 42920  98.2438  72.9173 0009833 260.0688  99.9397 14.50767344441393"}}, "geometry": {"type": "Point", "coordinates": [-107.88524628831168, -8.5117599639542]}}, {"type": "Feature", "properties": {"norad_id": 42969, "name": "SENTINEL-5P", "group": "resource", "lat": -69.5656559665795, "lon": 93.25786208158297, "alt_km": 834.9429486603058, "timestamp": "2025-12-25T07:00:33.700137+00:00", "meta": {"OBJECT_NAME": "SENTINEL-5P", "OBJECT_ID": "2017-064A", "EPOCH": "2025-12-24T19:40:42.589632", "MEAN_MOTION": 14.19520402, "ECCENTRICITY": 0.0001055, "INCLINATION": 98.7802, "RA_OF_ASC_NODE": 297.2978, "ARG_OF_PERICENTER": 90.9403, "MEAN_ANOMALY": 269.1894, "EPHEMERIS_TYPE": 0, "CLASSIFICATION_TYPE": "U", "NORAD_CAT_ID": 42969, "ELEMENT_SET_NO": 999, "REV_AT_EPOCH": 42482, "BSTAR": 6.0570831e-05, "MEAN_MOTION_DOT": 8.3e-07, "MEAN_MOTION_DDOT": 0}, "tle": {"line1": "1 42969U 17064A   25358.81993738  .00000083  00000+0  60571-4 0  9992", "line2": "2 42969  98.7802 297.2978 0001055  90.9403 269.1894 14.19520402424823"}}, "geometry": {"type": "Point", "coordinates": [93.25786208158297, -69.5656559665795]}}]}